{
    "links": {
        "self": "http://www.neowsapp.com/rest/v1/neo/3843775?api_key=iIulBulltgU6a56xZRHN4H3l9WmuAYTsLGpBGhQ2"
    },
    "id": "3843775",
    "neo_reference_id": "3843775",
    "name": "(2019 RW)",
    "designation": "2019 RW",
    "nasa_jpl_url": "http://ssd.jpl.nasa.gov/sbdb.cgi?sstr=3843775",
    "absolute_magnitude_h": 22.0,
    "estimated_diameter": {
        "kilometers": {
            "estimated_diameter_min": 0.1058168859,
            "estimated_diameter_max": 0.2366137501
        },
        "meters": {
            "estimated_diameter_min": 105.8168859331,
            "estimated_diameter_max": 236.6137501138
        },
        "miles": {
            "estimated_diameter_min": 0.0657515442,
            "estimated_diameter_max": 0.1470249225
        },
        "feet": {
            "estimated_diameter_min": 347.1682720448,
            "estimated_diameter_max": 776.2918559233
        }
    },
    "is_potentially_hazardous_asteroid": true,
    "close_approach_data": [
        {
            "close_approach_date": "2019-08-02",
            "close_approach_date_full": "2019-Aug-02 05:54",
            "epoch_date_close_approach": 1564725240000,
            "relative_velocity": {
                "kilometers_per_second": "14.0511332054",
                "kilometers_per_hour": "50584.0795392838",
                "miles_per_hour": "31430.9798670622"
            },
            "miss_distance": {
                "astronomical": "0.1148341051",
                "lunar": "44.6704668839",
                "kilometers": "17178937.526316137",
                "miles": "10674496.7958592106"
            },
            "orbiting_body": "Earth"
        }
    ],
    "orbital_data": {
        "orbit_id": "5",
        "orbit_determination_date": "2019-10-06 05:59:04",
        "first_observation_date": "2019-09-03",
        "last_observation_date": "2019-09-19",
        "data_arc_in_days": 16,
        "observations_used": 40,
        "orbit_uncertainty": "8",
        "minimum_orbit_intersection": ".0219919",
        "jupiter_tisserand_invariant": "3.356",
        "epoch_osculation": "2458731.5",
        "eccentricity": ".5804103313985459",
        "semi_major_axis": "2.280218155071817",
        "inclination": "4.82884378937362",
        "ascending_node_longitude": "310.2570756536573",
        "orbital_period": "1257.659355119076",
        "perihelion_distance": ".9567559800256027",
        "perihelion_argument": "311.2594516495238",
        "aphelion_distance": "3.603680330118031",
        "perihelion_time": "2458663.828383027262",
        "mean_anomaly": "19.37073183690435",
        "mean_motion": ".2862460319916398",
        "equinox": "J2000",
        "orbit_class": {
            "orbit_class_type": "APO",
            "orbit_class_description": "Near-Earth asteroid orbits which cross the Earth’s orbit similar to that of 1862 Apollo",
            "orbit_class_range": "a (semi-major axis) > 1.0 AU; q (perihelion) < 1.017 AU"
        }
    },
    "is_sentry_object": false
}